GLOBALSTAR M068         
1 32266U 07048D   25191.41039332 -.00000045  00000+0  32820-3 0  9998
2 32266  51.9865 231.4661 0001216 181.2333 192.7445 12.62826385820497
GLOBALSTAR M079         
1 37188U 10054A   25191.40192130 -.00000096  00000+0  44029-4 0  9993
2 37188  52.0045  69.1166 0000839  45.2914 125.8593 12.62265385679385
GLOBALSTAR M074         
1 37189U 10054B   25191.42876370 -.00000085  00000+0  10359-3 0  9997
2 37189  52.0025  68.3558 0000909  66.4684 105.0214 12.62266544679992
GLOBALSTAR M076         
1 37190U 10054C   25191.13694490 -.00000097  00000+0  37371-4 0  9995
2 37190  52.0037  69.4156 0000995  54.4395 111.3033 12.62263372679674
GLOBALSTAR M077         
1 37191U 10054D   25191.73859247 -.00000098  00000+0  33687-4 0  9992
2 37191  52.0088  24.4471 0000884  82.8462 358.5882 12.62268872680869
GLOBALSTAR M075         
1 37192U 10054E   25191.54864309 -.00000103  00000+0  70417-5 0  9997
2 37192  51.9943 110.4065 0000539  47.1538 130.3839 12.62265962678792
GLOBALSTAR M073         
1 37193U 10054F   25190.89529450 -.00000091  00000+0  71927-4 0  9992
2 37193  52.0077  26.2316 0000939  73.1337  14.2839 12.62272456680751
GLOBALSTAR M083         
1 37739U 11033A   25191.62037097 -.00000089  00000+0  85208-4 0  9993
2 37739  51.9879 332.7262 0000611 106.5961 335.7978 12.62259895649810
GLOBALSTAR M088         
1 37740U 11033B   25191.42019147 -.00000072  00000+0  17614-3 0  9996
2 37740  52.0197 238.9343 0000370 160.3318 212.8838 12.62266611645337
GLOBALSTAR M091         
1 37741U 11033C   25191.37515322 -.00000097  00000+0  39056-4 0  9999
2 37741  51.9971 202.5392 0000223 255.6279 213.3988 12.62269308646113
GLOBALSTAR M085         
1 37742U 11033D   25191.61302481 -.00000121  00000+0 -94737-4 0  9993
2 37742  51.9849 152.8306 0000303 346.3053 184.7687 12.62269681646657
GLOBALSTAR M081         
1 37743U 11033E   25191.63983356 -.00000128  00000+0 -13770-3 0  9996
2 37743  51.9939 155.5529 0000444   5.4566 165.9396 12.62266996646804
GLOBALSTAR M089         
1 37744U 11033F   25191.19909650 -.00000107  00000+0 -20361-4 0  9995
2 37744  51.9927 111.1168 0000779  60.8418  88.0234 12.62265219647591
GLOBALSTAR M084         
1 38040U 11080A   25191.59324962 -.00000100  00000+0  20633-4 0  9992
2 38040  52.0031 337.2187 0001098  97.1870 342.8180 12.62267008625620
GLOBALSTAR M080         
1 38041U 11080B   25191.56415194 -.00000105  00000+0 -77762-5 0  9990
2 38041  52.0081 338.9075 0000732 137.3267 299.7533 12.62263832625747
GLOBALSTAR M082         
1 38042U 11080C   25191.56523571 -.00000084  00000+0  11263-3 0  9997
2 38042  52.0088 294.3683 0000574 160.6451 212.2225 12.62267058626454
GLOBALSTAR M092         
1 38043U 11080D   25191.25706648 -.00000086  00000+0  98605-4 0  9990
2 38043  52.0100  25.6824 0000862  84.8131  86.7787 12.62264662624862
GLOBALSTAR M090         
1 38044U 11080E   25191.51233668 -.00000076  00000+0  15342-3 0  9992
2 38044  52.0134 288.3723 0000436 125.0869 248.5739 12.62260691626561
GLOBALSTAR M086         
1 38045U 11080F   25191.53853199 -.00000080  00000+0  13190-3 0  9996
2 38045  51.9907 288.7774 0001065  46.9971 326.4185 12.62272312626511
GLOBALSTAR M097         
1 39072U 13005A   25191.32466824 -.00000088  00000+0  87215-4 0  9996
2 39072  52.0019 203.9978 0000102   1.2927 358.7940 12.62265654573732
GLOBALSTAR M093         
1 39073U 13005B   25191.29832477 -.00000088  00000+0  89626-4 0  9992
2 39073  51.9783 197.3440 0000152 325.8445  34.2412 12.62266090573683
GLOBALSTAR M094         
1 39074U 13005C   25191.45682232 -.00000112  00000+0 -45918-4 0  9998
2 39074  51.9953 111.2669 0000641  19.9000 340.1891 12.62262796575313
GLOBALSTAR M096         
1 39075U 13005D   25191.23240134 -.00000121  00000+0 -95087-4 0  9998
2 39075  52.0052 160.4820 0000369 340.6568  19.4285 12.62265616574553
GLOBALSTAR M078         
1 39076U 13005E   25191.52278909 -.00000067  00000+0  20469-3 0  9991
2 39076  51.9857 244.0794 0000861 208.0575 152.0245 12.62259592572864
GLOBALSTAR M095         
1 39077U 13005F   25191.39059590 -.00000070  00000+0  19048-3 0  9995
2 39077  51.9783 241.6655 0000409 227.5468 132.5364 12.62268150572705
GLOBALSTAR M087         
1 52888U 22064A   25191.49168974 -.00000097  00000+0  38488-4 0  9992
2 52888  52.0010  22.7877 0001099  97.3404 262.7588 12.63725676147982
